[{"OBJECT_NAME":"KOSEN-1","OBJECT_ID":"2021-102H","EPOCH":"2026-03-09T22:29:54.100608","MEAN_MOTION":15.25323573,"ECCENTRICITY":0.00138659,"INCLINATION":97.3334,"RA_OF_ASC_NODE":113.0569,"ARG_OF_PERICENTER":191.9191,"MEAN_ANOMALY":168.1721,"EPHEMERIS_TYPE":0,"CLASSIFICATION_TYPE":"U","NORAD_CAT_ID":49402,"ELEMENT_SET_NO":999,"REV_AT_EPOCH":23888,"BSTAR":0.00040411561,"MEAN_MOTION_DOT":0.00010142,"MEAN_MOTION_DDOT":0},{"OBJECT_NAME":"STARLINK-30993","OBJECT_ID":"2023-186S","EPOCH":"2026-03-09T00:33:51.495552","MEAN_MOTION":15.27561669,"ECCENTRICITY":0.00018117,"INCLINATION":43.0032,"RA_OF_ASC_NODE":67.4606,"ARG_OF_PERICENTER":277.2444,"MEAN_ANOMALY":82.8202,"EPHEMERIS_TYPE":0,"CLASSIFICATION_TYPE":"U","NORAD_CAT_ID":58489,"ELEMENT_SET_NO":999,"REV_AT_EPOCH":12578,"BSTAR":0.0002212858,"MEAN_MOTION_DOT":5.829e-5,"MEAN_MOTION_DDOT":0}]
